0 Chandra
1 44441U 19042A   19230.00000000 -.00330169  19998-2  00000+0 0  9998
2 44441  21.8130  14.8810 9751339 184.2250 135.4150  0.09137592   246
